{
  "type": "FeatureCollection",
  "features": [
    {
      "type": "Feature",
      "properties": {
        "norad_id": 25590,
        "name": "COSMOS 2361",
        "group": "musson",
        "lat": -52.49451560283367,
        "lon": -34.58359728961928,
        "alt_km": 990.2902013440689,
        "timestamp": "2025-12-25T09:48:52.560172+00:00",
        "meta_object_name": "COSMOS 2361",
        "meta_object_id": "1998-076A",
        "meta_epoch": "2025-12-24T22:06:25.566336",
        "meta_mean_motion": 13.73218834,
        "meta_eccentricity": 0.00303123,
        "meta_inclination": 82.9345,
        "meta_ra_of_asc_node": 335.0765,
        "meta_arg_of_pericenter": 230.3469,
        "meta_mean_anomaly": 186.1312,
        "meta_ephemeris_type": 0,
        "meta_classification_type": "U",
        "meta_norad_cat_id": 25590,
        "meta_element_set_no": 999,
        "meta_rev_at_epoch": 35278,
        "meta_bstar": 5.2732414e-05,
        "meta_mean_motion_dot": 6.4e-07,
        "meta_mean_motion_ddot": 0,
        "tle_line1": "1 25590U 98076A   25358.92112924  .00000064  00000+0  52732-4 0  9996",
        "tle_line2": "2 25590  82.9345 335.0765 0030312 230.3469 186.1312 13.73218834352786"
      },
      "geometry": {
        "type": "Point",
        "coordinates": [
          -34.58359728961928,
          -52.49451560283367
        ]
      }
    },
    {
      "type": "Feature",
      "properties": {
        "norad_id": 26818,
        "name": "COSMOS 2378",
        "group": "musson",
        "lat": 60.21091088951925,
        "lon": 2.855813966721875,
        "alt_km": 986.5078774140675,
        "timestamp": "2025-12-25T09:48:52.560194+00:00",
        "meta_object_name": "COSMOS 2378",
        "meta_object_id": "2001-023A",
        "meta_epoch": "2025-12-24T18:37:53.800032",
        "meta_mean_motion": 13.74142959,
        "meta_eccentricity": 0.00331574,
        "meta_inclination": 82.9272,
        "meta_ra_of_asc_node": 350.7992,
        "meta_arg_of_pericenter": 171.1572,
        "meta_mean_anomaly": 2.4655,
        "meta_ephemeris_type": 0,
        "meta_classification_type": "U",
        "meta_norad_cat_id": 26818,
        "meta_element_set_no": 999,
        "meta_rev_at_epoch": 23088,
        "meta_bstar": 3.8839071e-05,
        "meta_mean_motion_dot": 5.2e-07,
        "meta_mean_motion_ddot": 0,
        "tle_line1": "1 26818U 01023A   25358.77631713  .00000052  00000+0  38839-4 0  9990",
        "tle_line2": "2 26818  82.9272 350.7992 0033157 171.1572   2.4655 13.74142959230883"
      },
      "geometry": {
        "type": "Point",
        "coordinates": [
          2.855813966721875,
          60.21091088951925
        ]
      }
    },
    {
      "type": "Feature",
      "properties": {
        "norad_id": 27436,
        "name": "COSMOS 2389",
        "group": "musson",
        "lat": -45.71758502358633,
        "lon": -69.68171570984524,
        "alt_km": 977.1076783096296,
        "timestamp": "2025-12-25T09:48:52.560207+00:00",
        "meta_object_name": "COSMOS 2389",
        "meta_object_id": "2002-026A",
        "meta_epoch": "2025-12-24T22:06:49.894848",
        "meta_mean_motion": 13.75155957,
        "meta_eccentricity": 0.00470943,
        "meta_inclination": 82.9513,
        "meta_ra_of_asc_node": 297.9673,
        "meta_arg_of_pericenter": 27.4918,
        "meta_mean_anomaly": 34.7494,
        "meta_ephemeris_type": 0,
        "meta_classification_type": "U",
        "meta_norad_cat_id": 27436,
        "meta_element_set_no": 999,
        "meta_rev_at_epoch": 18316,
        "meta_bstar": 6.8126465e-05,
        "meta_mean_motion_dot": 8.1e-07,
        "meta_mean_motion_ddot": 0,
        "tle_line1": "1 27436U 02026A   25358.92141082  .00000081  00000+0  68126-4 0  9997",
        "tle_line2": "2 27436  82.9513 297.9673 0047094  27.4918  34.7494 13.75155957183168"
      },
      "geometry": {
        "type": "Point",
        "coordinates": [
          -69.68171570984524,
          -45.71758502358633
        ]
      }
    },
    {
      "type": "Feature",
      "properties": {
        "norad_id": 27818,
        "name": "COSMOS 2398",
        "group": "musson",
        "lat": 38.25380308501887,
        "lon": 77.76219648000313,
        "alt_km": 977.2421658393041,
        "timestamp": "2025-12-25T09:48:52.560219+00:00",
        "meta_object_name": "COSMOS 2398",
        "meta_object_id": "2003-023A",
        "meta_epoch": "2025-12-24T21:14:05.590752",
        "meta_mean_motion": 13.72387025,
        "meta_eccentricity": 0.00327049,
        "meta_inclination": 82.9482,
        "meta_ra_of_asc_node": 263.7489,
        "meta_arg_of_pericenter": 79.4671,
        "meta_mean_anomaly": 353.335,
        "meta_ephemeris_type": 0,
        "meta_classification_type": "U",
        "meta_norad_cat_id": 27818,
        "meta_element_set_no": 999,
        "meta_rev_at_epoch": 12983,
        "meta_bstar": 6.8522529e-05,
        "meta_mean_motion_dot": 7.8e-07,
        "meta_mean_motion_ddot": 0,
        "tle_line1": "1 27818U 03023A   25358.88478693  .00000078  00000+0  68523-4 0  9992",
        "tle_line2": "2 27818  82.9482 263.7489 0032704  79.4671 353.3350 13.72387025129833"
      },
      "geometry": {
        "type": "Point",
        "coordinates": [
          77.76219648000313,
          38.25380308501887
        ]
      }
    },
    {
      "type": "Feature",
      "properties": {
        "norad_id": 28380,
        "name": "COSMOS 2407",
        "group": "musson",
        "lat": 23.769700475466266,
        "lon": 20.39215968206252,
        "alt_km": 997.2791665864916,
        "timestamp": "2025-12-25T09:48:52.560231+00:00",
        "meta_object_name": "COSMOS 2407",
        "meta_object_id": "2004-028A",
        "meta_epoch": "2025-12-24T20:54:03.918816",
        "meta_mean_motion": 13.76314966,
        "meta_eccentricity": 0.00397506,
        "meta_inclination": 82.9594,
        "meta_ra_of_asc_node": 203.9106,
        "meta_arg_of_pericenter": 21.6844,
        "meta_mean_anomaly": 349.4802,
        "meta_ephemeris_type": 0,
        "meta_classification_type": "U",
        "meta_norad_cat_id": 28380,
        "meta_element_set_no": 999,
        "meta_rev_at_epoch": 7590,
        "meta_bstar": 3.5455867e-05,
        "meta_mean_motion_dot": 5e-07,
        "meta_mean_motion_ddot": 0,
        "tle_line1": "1 28380U 04028A   25358.87087869  .00000050  00000+0  35456-4 0  9992",
        "tle_line2": "2 28380  82.9594 203.9106 0039750  21.6844 349.4802 13.76314966 75907"
      },
      "geometry": {
        "type": "Point",
        "coordinates": [
          20.39215968206252,
          23.769700475466266
        ]
      }
    },
    {
      "type": "Feature",
      "properties": {
        "norad_id": 28521,
        "name": "COSMOS 2414",
        "group": "musson",
        "lat": -46.97279687117176,
        "lon": 2.699264575330859,
        "alt_km": 959.1073755654234,
        "timestamp": "2025-12-25T09:48:52.560241+00:00",
        "meta_object_name": "COSMOS 2414",
        "meta_object_id": "2005-002A",
        "meta_epoch": "2025-12-24T22:20:42.993888",
        "meta_mean_motion": 13.87904494,
        "meta_eccentricity": 0.00414128,
        "meta_inclination": 82.9488,
        "meta_ra_of_asc_node": 175.4409,
        "meta_arg_of_pericenter": 105.8782,
        "meta_mean_anomaly": 254.6951,
        "meta_ephemeris_type": 0,
        "meta_classification_type": "U",
        "meta_norad_cat_id": 28521,
        "meta_element_set_no": 999,
        "meta_rev_at_epoch": 5964,
        "meta_bstar": 4.3942467e-05,
        "meta_mean_motion_dot": 6.9e-07,
        "meta_mean_motion_ddot": 0,
        "tle_line1": "1 28521U 05002A   25358.93105317  .00000069  00000+0  43942-4 0  9997",
        "tle_line2": "2 28521  82.9488 175.4409 0041412 105.8782 254.6951 13.87904494 59647"
      },
      "geometry": {
        "type": "Point",
        "coordinates": [
          2.699264575330859,
          -46.97279687117176
        ]
      }
    },
    {
      "type": "Feature",
      "properties": {
        "norad_id": 32052,
        "name": "COSMOS 2429",
        "group": "musson",
        "lat": 39.240593388666795,
        "lon": 148.1938353295709,
        "alt_km": 998.9170700727045,
        "timestamp": "2025-12-25T09:48:52.560252+00:00",
        "meta_object_name": "COSMOS 2429",
        "meta_object_id": "2007-038A",
        "meta_epoch": "2025-12-24T22:39:31.039200",
        "meta_mean_motion": 13.75150587,
        "meta_eccentricity": 0.00385165,
        "meta_inclination": 82.9808,
        "meta_ra_of_asc_node": 334.3115,
        "meta_arg_of_pericenter": 4.2546,
        "meta_mean_anomaly": 355.893,
        "meta_ephemeris_type": 0,
        "meta_classification_type": "U",
        "meta_norad_cat_id": 32052,
        "meta_element_set_no": 999,
        "meta_rev_at_epoch": 91770,
        "meta_bstar": 5.0012705e-05,
        "meta_mean_motion_dot": 6.3e-07,
        "meta_mean_motion_ddot": 0,
        "tle_line1": "1 32052U 07038A   25358.94410925  .00000063  00000+0  50013-4 0  9998",
        "tle_line2": "2 32052  82.9808 334.3115 0038516   4.2546 355.8930 13.75150587917702"
      },
      "geometry": {
        "type": "Point",
        "coordinates": [
          148.1938353295709,
          39.240593388666795
        ]
      }
    },
    {
      "type": "Feature",
      "properties": {
        "norad_id": 35635,
        "name": "COSMOS 2454",
        "group": "musson",
        "lat": 9.12299874957534,
        "lon": 160.17863326125797,
        "alt_km": 917.891441030536,
        "timestamp": "2025-12-25T09:48:52.560263+00:00",
        "meta_object_name": "COSMOS 2454",
        "meta_object_id": "2009-039A",
        "meta_epoch": "2025-12-24T23:57:14.333184",
        "meta_mean_motion": 13.89930197,
        "meta_eccentricity": 0.0020005,
        "meta_inclination": 82.9558,
        "meta_ra_of_asc_node": 159.3524,
        "meta_arg_of_pericenter": 40.6876,
        "meta_mean_anomaly": 74.0739,
        "meta_ephemeris_type": 0,
        "meta_classification_type": "U",
        "meta_norad_cat_id": 35635,
        "meta_element_set_no": 999,
        "meta_rev_at_epoch": 83320,
        "meta_bstar": 5.6949e-05,
        "meta_mean_motion_dot": 8.6e-07,
        "meta_mean_motion_ddot": 0,
        "tle_line1": "1 35635U 09039A   25358.99808256  .00000086  00000+0  56949-4 0  9993",
        "tle_line2": "2 35635  82.9558 159.3524 0020005  40.6876  74.0739 13.89930197833204"
      },
      "geometry": {
        "type": "Point",
        "coordinates": [
          160.17863326125797,
          9.12299874957534
        ]
      }
    },
    {
      "type": "Feature",
      "properties": {
        "norad_id": 36519,
        "name": "COSMOS 2463",
        "group": "musson",
        "lat": -61.909062510366596,
        "lon": 4.016534562291334,
        "alt_km": 982.8584153603151,
        "timestamp": "2025-12-25T09:48:52.560273+00:00",
        "meta_object_name": "COSMOS 2463",
        "meta_object_id": "2010-017A",
        "meta_epoch": "2025-12-24T23:55:31.766880",
        "meta_mean_motion": 13.71650199,
        "meta_eccentricity": 0.0034804,
        "meta_inclination": 82.9603,
        "meta_ra_of_asc_node": 17.7047,
        "meta_arg_of_pericenter": 252.7721,
        "meta_mean_anomaly": 170.7477,
        "meta_ephemeris_type": 0,
        "meta_classification_type": "U",
        "meta_norad_cat_id": 36519,
        "meta_element_set_no": 999,
        "meta_rev_at_epoch": 78405,
        "meta_bstar": 3.3999e-05,
        "meta_mean_motion_dot": 4.6e-07,
        "meta_mean_motion_ddot": 0,
        "tle_line1": "1 36519U 10017A   25358.99689545  .00000046  00000+0  33999-4 0  9997",
        "tle_line2": "2 36519  82.9603  17.7047 0034804 252.7721 170.7477 13.71650199784054"
      },
      "geometry": {
        "type": "Point",
        "coordinates": [
          4.016534562291334,
          -61.909062510366596
        ]
      }
    }
  ]
}